0 SL-3 DEB
1 09663U 77002C   13283.57574400  .00000041  00000-0  18476-4 0   355
2 09663 081.2677 229.4668 0007163 008.2827 047.4334 14.02330603880539
0 SL-3 DEB
1 09663U 77002C   13285.64506620  .00000117  00000-0  68193-4 0   360
2 09663 081.2682 227.4835 0007065 002.1115 054.5686 14.02330190880825
0 SL-3 DEB
1 09663U 77002C   13288.22703601  .00000181  00000-0  11010-3 0   372
2 09663 081.2687 225.0090 0006925 354.7914 129.4618 14.02330448881187
0 SL-3 DEB
1 09663U 77002C   13291.13948097  .00000084  00000-0  46797-4 0   380
2 09663 081.2687 222.2182 0006719 346.7108 072.5593 14.02332016881593
0 SL-3 DEB
1 09663U 77002C   13293.50633251 -.00000005  00000-0 -11031-4 0   395
2 09663 081.2685 219.9503 0006568 340.0535 141.3994 14.02333115881922
0 SL-3 DEB
1 09663U 77002C   13295.84881866 -.00000035  00000-0 -31083-4 0   405
2 09663 081.2683 217.7054 0006464 332.7529 087.9540 14.02333327882257
